#aV2020 10 27  0  0  0.00000000     288 DD+AD WGS84 FIT  NGA
## 2129 172800.00000000   300.00000000 59149 0.0000000000000
+   31     1  2  3  4  5  6  7  8  9 10 11 12 13 15 16 17 18
+         19 20 21 22 23 24 25 26 27 28 29 30 31 32  0  0  0
+          0  0  0  0  0  0  0  0  0  0  0  0  0  0  0  0  0
+          0  0  0  0  0  0  0  0  0  0  0  0  0  0  0  0  0
+          0  0  0  0  0  0  0  0  0  0  0  0  0  0  0  0  0
++         2  2  2  2  2  2  2  2  2  2  2  2  2  2  2  2  2
++         2  2  2  2  2  2  2  2  2  2  2  2  2  2  0  0  0
++         0  0  0  0  0  0  0  0  0  0  0  0  0  0  0  0  0
++         0  0  0  0  0  0  0  0  0  0  0  0  0  0  0  0  0
++         0  0  0  0  0  0  0  0  0  0  0  0  0  0  0  0  0
%c cc cc ccc ccc cccc cccc cccc cccc ccccc ccccc ccccc ccccc
%c cc cc ccc ccc cccc cccc cccc cccc ccccc ccccc ccccc ccccc
%f  0.0000000  0.000000000  0.00000000000  0.000000000000000
%f  0.0000000  0.000000000  0.00000000000  0.000000000000000
%i    0    0    0    0      0      0      0      0         0
%i    0    0    0    0      0      0      0      0         0
/*      NGA, ST. LOUIS,MO.                                  
/*   EPHEMERIS COMPUTED FROM 2 DAYS OF DATA                 
/*   EPOCHA v5 SMOOTHER                                     
/*   G1762 IERS2010 SATAF SATAPC                            
*  2020 10 27 12  0  0.00000000
P  1  18702.471949  14256.409057 -12900.915332    812.767538                    
V  1 -15628.471330  -2933.567005 -26068.178260     -0.028584                    
P  2   2164.069702 -15377.095678  22196.030821   -534.948602                    
V  2  26146.474847   5146.222098   1028.203351     -0.048645                    
P  3  12898.790800  20721.678360  10511.338239   -337.481592                    
V  3   1203.730540  13561.760055 -27896.033146     -0.101979                    
P  4  10760.968475  10785.355410  21760.133925   -149.463867                    
V  4 -20259.841053  18775.925219    671.948095     -0.037805                    
P  5  -1230.096263 -25021.314409   8387.739786    -24.411548                    
V  5   5980.420545   9620.392824  29222.709301     -0.009271                    
P  6  17907.495070  -7647.521073  18135.422715   -335.649301                    
V  6  21717.288899   7207.911270 -18424.899318     -0.020980                    
P  7  26052.282036   5965.271126  -1987.407554   -402.038646                    
V  7   2041.369726   3352.151445  31130.250144     -0.078266                    
P  8   1799.317309  17544.581234 -19762.132409    -52.933037                    
V  8 -18519.398998  17106.092907  13755.252813     -0.014020                    
P  9  19184.857393  -1002.673190  18286.013785   -305.747062                    
V  9 -15188.546608  17828.575474  16838.305328     -0.050632                    
P 10 -13407.970765   7494.872867 -21551.322412   -490.003856                    
V 10  -7532.749907 -26549.481428  -4780.592464     -0.093471                    
P 11   9896.135475  14136.653872 -20589.475012   -125.381091                    
V 11 -24587.408734   6410.269954  -7954.937659      0.105473                    
P 12 -10112.008894 -23063.258369   8443.780261     48.484832                    
V 12     41.002169 -11184.860219 -29531.070556     -0.051278                    
P 13   8195.643691 -19816.840700 -15728.741724     58.841378                    
V 13  16845.792289 -10492.836194  22293.748197      0.037911                    
P 15  -5071.635972 -17241.141325 -19796.927779   -194.116163                    
V 15  16758.273471 -18103.222474  12051.271944      0.025877                    
P 16   -714.672933  25248.027091   7194.542760   -228.125222                    
V 16  -4146.730573  -8970.023701  30591.254096     -0.052349                    
P 17  21214.245201 -15435.384229  -3576.604882    345.648196                    
V 17  -2401.613701   4960.545353 -31850.148776      0.053284                    
P 18 -25835.584981  -4860.641405  -3997.285228    313.175051                    
V 18  -4101.074976  -3915.467351  31293.518804      0.054620                    
P 19  19772.247601 -17523.320779   2003.625680    -86.278021                    
V 19   3647.519336    -72.020823 -32132.485611      0.050258                    
P 20 -17591.704457  -5014.554635 -19413.981269    526.250570                    
V 20  -8124.138899 -23162.078863  13138.111949     -0.001400                    
P 21   6448.819101  15619.893742 -19852.010814     62.086757                    
V 21 -26458.963587  -4244.622788 -11182.838535      0.039217                    
P 22  10882.938976  24190.345534   2703.987236   -738.059446                    
V 22  -2252.596584   4217.508133 -30754.663230      0.049039                    
P 23 -16167.607058  -3780.586406 -20766.388596     92.176986                    
V 23  -6471.413697 -25495.630739   9670.091945      0.056272                    
P 24 -16180.637857 -14892.726979 -15376.480503    -20.322792                    
V 24  19110.211675   1688.766946 -21672.808371     -0.004642                    
P 25 -15640.231268 -12827.451287  17111.719419     12.058832                    
V 25  -4028.433992 -21773.499526 -19467.673026      0.062031                    
P 26  -7637.114886  18369.852269  17445.622347    302.071933                    
V 26  -8476.902827 -20799.402668  18396.120332      0.061642                    
P 27  -9297.896097  21262.925475 -12742.450563   -427.845625                    
V 27 -12871.887506   9803.612381  26382.270442     -0.085307                    
P 28  12936.763161  -8762.689263 -20925.527424    662.785724                    
V 28   5084.801324  27402.250144  -7950.459817     -0.045252                    
P 29 -17502.101362  -2321.835884  19821.684234   -224.172594                    
V 29  18544.688462 -17041.209896  14305.270282     -0.078617                    
P 30  23997.387473  -1424.469376 -11476.407739   -324.955051                    
V 30  13139.653532   7011.168702  26270.387070     -0.067864                    
P 31 -16569.472098   8875.887633  18883.874159    -77.613580                    
V 31 -22572.021831  -8111.153306 -15487.022028     -0.023994                    
P 32 -20541.292768  16054.612809  -4521.047101    361.810046                    
V 32   2017.625026  -6292.807270 -31077.154959      0.037141                    
EOF
